{
  "type": "FeatureCollection",
  "features": [
    {
      "type": "Feature",
      "properties": {
        "anchorZip": "54401",
        "radiusMiles": 60
      },
      "geometry": {
        "type": "Polygon",
        "coordinates": [
          [
            [-89.709421, 45.8352116983334],
            [-89.66592467778153, 45.83467452751812],
            [-89.62248384052951, 45.83306370061959],
            [-89.57915389268403, 45.83038127328127],
            [-89.53599007780284, 45.82663066824945],
            [-89.49304739854513, 45.82181667039148],
            [-89.45038053716365, 45.815945419736416],
            [-89.40804377667119, 45.80902440255282],
            [-89.36609092284534, 45.80106244048294],
            [-89.32457522723153, 45.79206967775639],
            [-89.28354931130126, 45.782057566510545],
            [-89.24306509191726, 45.77103885024855],
            [-89.20317370825279, 45.75902754546997],
            [-89.16392545030654, 45.746038921512174],
            [-89.12536968914864, 45.73208947864477],
            [-89.08755480902704, 45.71719692446167],
            [-89.05052814145614, 45.70138014861973],
            [-89.01433590140317, 45.68465919597467],
            [-88.97902312567939, 45.6670552381686],
            [-88.94463361363633, 45.64859054372561],
            [-88.91120987025828, 45.6292884467141],
            [-88.87879305173509, 45.609173314037406],
            [-88.84742291359021, 45.588270511415],
            [-88.81713776143089, 45.56660636811953],
            [-88.78797440437904, 45.5442081405354],
            [-88.7599681112328, 45.52110397460668],
            [-88.73315256940013, 45.49732286724255],
            [-88.70755984663853, 45.472894626749856],
            [-88.68322035562508, 45.4478498323626],
            [-88.6601628213751, 45.42221979293897],
            [-88.63841425151807, 45.39603650489633],
            [-88.61799990943348, 45.36933260945533],
            [-88.59894329024063, 45.342141349263194],
            [-88.58126609963067, 45.31449652446703],
            [-88.56498823552147, 45.2864324483066],
            [-88.55012777251049, 45.25798390229589],
            [-88.53670094909397, 45.22918609106202],
            [-88.52472215761598, 45.200074596908706],
            [-88.51420393690498, 45.17068533417105],
            [-88.50515696755123, 45.141054503426766],
            [-88.49759006977358, 45.11121854562784],
            [-88.49151020382023, 45.081214096215426],
            [-88.4869224728447, 45.05107793927901],
            [-88.48383012819434, 45.020846961819636],
            [-88.48223457704663, 44.99055810817512],
            [-88.48213539232546, 44.96024833466379],
            [-88.48353032482794, 44.929954564501244],
            [-88.48641531748981, 44.89971364304336],
            [-88.49078452171739, 44.869562293406396],
            [-88.4966303157116, 44.839537072513735],
            [-88.50394332470991, 44.80967432761691],
            [-88.51271244307102, 44.780010153336406],
            [-88.52292485812754, 44.7505803492664],
            [-88.53456607573145, 44.72142037818534],
            [-88.54761994741821, 44.692565324913],
            [-88.56206869911551, 44.66404985585208],
            [-88.57789296132411, 44.63590817925168],
            [-88.5950718006985, 44.60817400622732],
            [-88.61358275295756, 44.58088051257104],
            [-88.63340185705542, 44.55406030138337],
            [-88.65450369054575, 44.52774536655711],
            [-88.67686140607334, 44.50196705714171],
            [-88.70044676892913, 44.47675604261498],
            [-88.72523019560688, 44.45214227908791],
            [-88.75118079330147, 44.42815497646663],
            [-88.7782664002908, 44.404822566594106],
            [-88.8064536271458, 44.38217267239316],
            [-88.8357078987146, 44.360232078030776],
            [-88.86599349682993, 44.3390267001226],
            [-88.89727360368983, 44.31858155999527],
            [-88.92951034586514, 44.29892075702323],
            [-88.9626648388887, 44.28006744305531],
            [-88.99669723238313, 44.26204379794562],
            [-89.03156675568687, 44.244871006202104],
            [-89.06723176393977, 44.228569234765196],
            [-89.10364978459106, 44.213157611928196],
            [-89.1407775642955, 44.19865420740997],
            [-89.17857111616445, 44.18507601358991],
            [-89.21698576734065, 44.172438927914044],
            [-89.2559762068673, 44.160757736480946],
            [-89.29549653382358, 44.15004609881456],
            [-89.33550030570008, 44.1403165338313],
            [-89.37594058698905, 44.13158040700732],
            [-89.41676999796597, 44.12384791875171],
            [-89.45794076363974, 44.11712809399065],
            [-89.49940476284989, 44.11142877296676],
            [-89.54111357749056, 44.1067566032577],
            [-89.58301854184135, 44.10311703301715],
            [-89.62507079198632, 44.100514305440925],
            [-89.6672213153024, 44.098951454460675],
            [-89.709421, 44.09843030166659],
            [-89.75162068469761, 44.098951454460675],
            [-89.7937712080137, 44.100514305440925],
            [-89.83582345815864, 44.10311703301715],
            [-89.87772842250945, 44.1067566032577],
            [-89.91943723715012, 44.11142877296676],
            [-89.96090123636027, 44.11712809399065],
            [-90.00207200203404, 44.12384791875171],
            [-90.04290141301097, 44.13158040700732],
            [-90.08334169429993, 44.1403165338313],
            [-90.12334546617643, 44.15004609881456],
            [-90.16286579313271, 44.160757736480946],
            [-90.20185623265937, 44.172438927914044],
            [-90.24027088383556, 44.18507601358991],
            [-90.27806443570451, 44.19865420740997],
            [-90.31519221540896, 44.213157611928196],
            [-90.35161023606024, 44.228569234765196],
            [-90.38727524431314, 44.244871006202104],
            [-90.42214476761689, 44.26204379794562],
            [-90.45617716111131, 44.28006744305531],
            [-90.48933165413486, 44.29892075702323],
            [-90.52156839631019, 44.31858155999527],
            [-90.55284850317008, 44.3390267001226],
            [-90.5831341012854, 44.360232078030776],
            [-90.61238837285421, 44.38217267239316],
            [-90.64057559970921, 44.404822566594106],
            [-90.66766120669854, 44.42815497646663],
            [-90.69361180439313, 44.45214227908791],
            [-90.71839523107089, 44.47675604261498],
            [-90.74198059392667, 44.50196705714171],
            [-90.76433830945426, 44.52774536655711],
            [-90.7854401429446, 44.55406030138337],
            [-90.80525924704246, 44.58088051257104],
            [-90.8237701993015, 44.60817400622732],
            [-90.8409490386759, 44.63590817925168],
            [-90.85677330088448, 44.66404985585208],
            [-90.8712220525818, 44.692565324913],
            [-90.88427592426856, 44.72142037818534],
            [-90.89591714187246, 44.7505803492664],
            [-90.90612955692899, 44.780010153336406],
            [-90.9148986752901, 44.80967432761691],
            [-90.92221168428841, 44.839537072513735],
            [-90.92805747828262, 44.869562293406396],
            [-90.9324266825102, 44.89971364304336],
            [-90.93531167517207, 44.929954564501244],
            [-90.93670660767455, 44.96024833466379],
            [-90.93660742295339, 44.99055810817512],
            [-90.93501187180567, 45.02084696181963],
            [-90.93191952715532, 45.05107793927901],
            [-90.92733179617979, 45.081214096215426],
            [-90.92125193022643, 45.11121854562784],
            [-90.91368503244878, 45.141054503426766],
            [-90.90463806309504, 45.17068533417105],
            [-90.89411984238403, 45.200074596908706],
            [-90.88214105090604, 45.22918609106202],
            [-90.86871422748952, 45.25798390229589],
            [-90.85385376447854, 45.2864324483066],
            [-90.83757590036934, 45.31449652446703],
            [-90.81989870975939, 45.342141349263194],
            [-90.80084209056653, 45.36933260945533],
            [-90.78042774848194, 45.39603650489633],
            [-90.75867917862492, 45.42221979293897],
            [-90.73562164437493, 45.4478498323626],
            [-90.71128215336148, 45.472894626749856],
            [-90.68568943059988, 45.49732286724255],
            [-90.65887388876722, 45.52110397460668],
            [-90.63086759562097, 45.5442081405354],
            [-90.60170423856913, 45.56660636811953],
            [-90.5714190864098, 45.588270511415],
            [-90.54004894826492, 45.609173314037406],
            [-90.50763212974175, 45.6292884467141],
            [-90.47420838636369, 45.6485905437256],
            [-90.43981887432062, 45.6670552381686],
            [-90.40450609859684, 45.68465919597467],
            [-90.36831385854387, 45.70138014861973],
            [-90.33128719097297, 45.71719692446167],
            [-90.29347231085137, 45.73208947864477],
            [-90.25491654969348, 45.746038921512174],
            [-90.21566829174722, 45.75902754546997],
            [-90.17577690808275, 45.77103885024855],
            [-90.13529268869875, 45.782057566510545],
            [-90.09426677276848, 45.79206967775639],
            [-90.05275107715467, 45.80106244048294],
            [-90.01079822332882, 45.80902440255282],
            [-89.96846146283636, 45.815945419736416],
            [-89.92579460145488, 45.82181667039148],
            [-89.88285192219716, 45.82663066824945],
            [-89.83968810731598, 45.83038127328127],
            [-89.7963581594705, 45.83306370061959],
            [-89.75291732221848, 45.83467452751812],
            [-89.709421, 45.8352116983334]
          ]
        ]
      }
    },
    {
      "type": "Feature",
      "properties": {
        "anchorZip": "54403",
        "radiusMiles": 60
      },
      "geometry": {
        "type": "Polygon",
        "coordinates": [
          [
            [-89.525117, 45.886895698333404],
            [-89.48158022623996, 45.886358512611146],
            [-89.4380989936209, 45.884747641067726],
            [-89.39472876265232, 45.88206513957438],
            [-89.35152483275154, 45.87831443125557],
            [-89.30854226212345, 45.873500301505324],
            [-89.26583578814954, 45.86762889102498],
            [-89.22345974845273, 45.860707686897356],
            [-89.18146800280209, 45.85274551171668],
            [-89.13991385601793, 45.8437525107971],
            [-89.0988499820342, 45.83374013748729],
            [-89.0583283492706, 45.82272113662206],
            [-89.01840014746168, 45.81070952614585],
            [-88.97911571608444, 45.797720576946574],
            [-88.94052447452071, 45.783770790941645],
            [-88.90267485408333, 45.76887787746157],
            [-88.86561423202832, 45.75306072797924],
            [-88.8293888676691, 45.73633938923647],
            [-88.79404384069929, 45.718735034821535],
            [-88.75962299182514, 45.700269935254624],
            [-88.72616886579857, 45.680967426639924],
            [-88.69372265693508, 45.660851877945504],
            [-88.66232415719134, 45.63994865697399],
            [-88.63201170686989, 45.61828409508885],
            [-88.60282214800914, 45.59588545076237],
            [-88.57479078050858, 45.57278087201279],
            [-88.54795132103123, 45.54899935779943],
            [-88.52233586471631, 45.52457071844477],
            [-88.49797484972744, 45.499525535153936],
            [-88.4748970246538, 45.4738951187019],
            [-88.45312941877317, 45.447711467359035],
            [-88.43269731517923, 45.42100722412607],
            [-88.41362422676724, 45.393815633348794],
            [-88.3959318750661, 45.3661704967831],
            [-88.3796401718974, 45.338106129180076],
            [-88.36476720383622, 45.3096573134605],
            [-88.35132921944214, 45.28085925554702],
            [-88.33934061922358, 45.251747538921805],
            [-88.32881394829317, 45.22235807897588],
            [-88.3197598916671, 45.19272707721564],
            [-88.31218727215688, 45.16289097539051],
            [-88.30610305079792, 45.13288640960448],
            [-88.30151232975591, 45.10275016447253],
            [-88.29841835764823, 45.07251912738197],
            [-88.29682253721532, 45.04223024291629],
            [-88.29672443527413, 45.01192046749831],
            [-88.29812179488363, 44.98162672430713],
            [-88.30101054965108, 44.95138585852182],
            [-88.30538484010566, 44.92123459294306],
            [-88.31123703206588, 44.891209484042015],
            [-88.31855773692561, 44.86134687848409],
            [-88.32733583378398, 44.83168287017314],
            [-88.3375584933437, 44.802253257860215],
            [-88.34921120350292, 44.77309350335875],
            [-88.36227779656588, 44.74423869040663],
            [-88.37674047799858, 44.71572348421364],
            [-88.39257985665631, 44.68758209173084],
            [-88.40977497641136, 44.65984822267735],
            [-88.42830334910988, 44.632555051357414],
            [-88.44814098878932, 44.605735179299714],
            [-88.46926244708817, 44.579420598749046],
            [-88.49164084978288, 44.55364265703856],
            [-88.51524793438738, 44.52843202186998],
            [-88.54005408875358, 44.50381864752689],
            [-88.56602839061262, 44.479831742045455],
            [-88.5931386479989, 44.456499735365036],
            [-88.6213514405012, 44.43385024848021],
            [-88.65063216128718, 44.41191006361417],
            [-88.68094505984973, 44.390705095432295],
            [-88.712253285426, 44.370260363313605],
            [-88.74451893104181, 44.350599964696585],
            [-88.77770307813675, 44.331747049514725],
            [-88.81176584172692, 44.31372379573624],
            [-88.84666641606468, 44.29655138602124],
            [-88.88236312075685, 44.280249985508846],
            [-88.91881344730436, 44.26483872074577],
            [-88.95597410602892, 44.250335659766925],
            [-88.99380107335355, 44.236757793338],
            [-89.03224963940602, 44.22412101736892],
            [-89.0712744559155, 44.212440116506535],
            [-89.1108295843747, 44.2017287489141],
            [-89.15086854444121, 44.19199943224437],
            [-89.19134436255285, 44.1832635308126],
            [-89.23220962073354, 44.175531243974845],
            [-89.27341650556706, 44.16881159571687],
            [-89.31491685731741, 44.16311242545765],
            [-89.35666221917523, 44.15844038007163],
            [-89.39860388661081, 44.15480090713281],
            [-89.44069295681457, 44.15219824938352],
            [-89.48288037820694, 44.15063544042997],
            [-89.525117, 44.1501143016666],
            [-89.56735362179305, 44.15063544042997],
            [-89.60954104318542, 44.15219824938352],
            [-89.65163011338917, 44.15480090713281],
            [-89.69357178082475, 44.15844038007163],
            [-89.73531714268258, 44.16311242545765],
            [-89.77681749443293, 44.16881159571687],
            [-89.81802437926645, 44.175531243974845],
            [-89.85888963744715, 44.1832635308126],
            [-89.8993654555588, 44.19199943224437],
            [-89.93940441562529, 44.2017287489141],
            [-89.97895954408449, 44.212440116506535],
            [-90.01798436059397, 44.22412101736892],
            [-90.05643292664644, 44.236757793338],
            [-90.09425989397107, 44.250335659766925],
            [-90.13142055269563, 44.26483872074577],
            [-90.16787087924314, 44.280249985508846],
            [-90.20356758393531, 44.29655138602124],
            [-90.23846815827308, 44.31372379573624],
            [-90.27253092186324, 44.331747049514725],
            [-90.30571506895818, 44.350599964696585],
            [-90.33798071457397, 44.370260363313605],
            [-90.36928894015026, 44.390705095432295],
            [-90.39960183871281, 44.41191006361417],
            [-90.4288825594988, 44.43385024848021],
            [-90.45709535200109, 44.456499735365036],
            [-90.48420560938737, 44.479831742045455],
            [-90.51017991124641, 44.50381864752689],
            [-90.53498606561261, 44.52843202186998],
            [-90.5585931502171, 44.55364265703856],
            [-90.58097155291182, 44.579420598749046],
            [-90.60209301121067, 44.605735179299714],
            [-90.6219306508901, 44.632555051357414],
            [-90.64045902358865, 44.65984822267735],
            [-90.65765414334368, 44.68758209173084],
            [-90.67349352200141, 44.71572348421364],
            [-90.68795620343411, 44.74423869040663],
            [-90.70102279649707, 44.77309350335875],
            [-90.7126755066563, 44.802253257860215],
            [-90.72289816621601, 44.83168287017314],
            [-90.73167626307438, 44.86134687848409],
            [-90.73899696793411, 44.891209484042015],
            [-90.74484915989433, 44.92123459294306],
            [-90.74922345034891, 44.95138585852182],
            [-90.75211220511636, 44.98162672430713],
            [-90.75350956472586, 45.01192046749831],
            [-90.75341146278467, 45.04223024291629],
            [-90.75181564235176, 45.07251912738197],
            [-90.74872167024408, 45.10275016447253],
            [-90.74413094920207, 45.13288640960448],
            [-90.73804672784313, 45.16289097539051],
            [-90.73047410833288, 45.192727077215636],
            [-90.72142005170682, 45.22235807897588],
            [-90.71089338077641, 45.251747538921805],
            [-90.69890478055785, 45.28085925554702],
            [-90.68546679616377, 45.3096573134605],
            [-90.67059382810258, 45.338106129180076],
            [-90.65430212493389, 45.3661704967831],
            [-90.63660977323275, 45.393815633348794],
            [-90.61753668482076, 45.42100722412607],
            [-90.59710458122682, 45.447711467359035],
            [-90.57533697534619, 45.4738951187019],
            [-90.55225915027255, 45.499525535153936],
            [-90.52789813528369, 45.52457071844477],
            [-90.50228267896875, 45.54899935779943],
            [-90.47544321949141, 45.57278087201279],
            [-90.44741185199086, 45.59588545076237],
            [-90.4182222931301, 45.61828409508885],
            [-90.38790984280867, 45.63994865697399],
            [-90.35651134306492, 45.660851877945504],
            [-90.32406513420142, 45.680967426639924],
            [-90.29061100817488, 45.700269935254624],
            [-90.25619015930071, 45.718735034821535],
            [-90.22084513233091, 45.73633938923647],
            [-90.18461976797167, 45.75306072797924],
            [-90.14755914591669, 45.76887787746157],
            [-90.10970952547927, 45.783770790941645],
            [-90.07111828391557, 45.797720576946574],
            [-90.03183385253831, 45.81070952614585],
            [-89.9919056507294, 45.82272113662206],
            [-89.9513840179658, 45.83374013748729],
            [-89.91032014398206, 45.8437525107971],
            [-89.8687659971979, 45.85274551171668],
            [-89.82677425154726, 45.860707686897356],
            [-89.78439821185046, 45.86762889102498],
            [-89.74169173787655, 45.873500301505324],
            [-89.69870916724845, 45.87831443125557],
            [-89.65550523734767, 45.88206513957438],
            [-89.61213500637909, 45.884747641067726],
            [-89.56865377376003, 45.886358512611146],
            [-89.525117, 45.886895698333404]
          ]
        ]
      }
    },
    {
      "type": "Feature",
      "properties": {
        "anchorZip": "54474",
        "radiusMiles": 60
      },
      "geometry": {
        "type": "Polygon",
        "coordinates": [
          [
            [-89.620177, 45.74226969833341],
            [-89.5767531431522, 45.74173255425542],
            [-89.53338467065079, 45.74012180743239],
            [-89.49012688650403, 45.73743951309933],
            [-89.44703493421349, 45.73368909332425],
            [-89.40416371694431, 45.72887533203],
            [-89.36156781820169, 45.723004368039966],
            [-89.3193014231796, 45.71608368616234],
            [-89.27741824094443, 45.70812210633212],
            [-89.2359714276137, 45.69912977083391],
            [-89.19501351068565, 45.689118129632675],
            [-89.15459631467112, 45.67809992384333],
            [-89.1147708881745, 45.66608916737405],
            [-89.07558743256472, 45.65310112678153],
            [-89.03709523237126, 45.63915229937993],
            [-88.999342587534, 45.62426038964877],
            [-88.96237674762878, 45.60844428398778],
            [-88.92624384818323, 45.59172402387007],
            [-88.89098884919025, 45.57412077744726],
            [-88.85665547591861, 45.55565680966328],
            [-88.82328616211201, 45.53635545093546],
            [-88.79092199566023, 45.51624106446385],
            [-88.75960266681732, 45.49533901223165],
            [-88.7293664190335, 45.47367561976143],
            [-88.70025000245941, 45.45127813969286],
            [-88.67228863017233, 45.42817471424963],
            [-88.64551593716635, 45.40439433666379],
            [-88.61996394213975, 45.379966811626815],
            [-88.59566301210475, 45.35492271483712],
            [-88.57264182983742, 45.329293351714725],
            [-88.55092736417681, 45.303110715353256],
            [-88.53054484317603, 45.27640744378026],
            [-88.5115177300995, 45.24921677659614],
            [-88.49386770225507, 45.22157251106213],
            [-88.4776146326416, 45.193508957706825],
            [-88.46277657438746, 45.16506089552065],
            [-88.44936974794874, 45.13626352680649],
            [-88.43740853103088, 45.107152431753995],
            [-88.42690545119179, 45.077763522803906],
            [-88.41787118107987, 45.048132998867665],
            [-88.4103145362562, 45.018297299466454],
            [-88.40424247554554, 44.988293058852086],
            [-88.39966010385781, 44.958157060170926],
            [-88.39657067741778, 44.92792618973074],
            [-88.39497561133872, 44.8976373914282],
            [-88.39487448947209, 44.867327621393656],
            [-88.39626507646473, 44.83703380290777],
            [-88.3991433319519, 44.80679278164303],
            [-88.40350342681383, 44.77664128128126],
            [-88.40933776142259, 44.746615859556634],
            [-88.41663698580483, 44.71675286477159],
            [-88.42539002164568, 44.68708839283165],
            [-88.43558408605954, 44.657658244842935],
            [-88.44720471705261, 44.628497885314616],
            [-88.46023580060356, 44.599642401006655],
            [-88.4746595992884, 44.5711264604614],
            [-88.49045678237735, 44.54298427425601],
            [-88.50760645733185, 44.51524955601058],
            [-88.52608620263166, 44.487955484185775],
            [-88.54587210186314, 44.461134664701454],
            [-88.56693877900153, 44.434819094406556],
            [-88.5892594348215, 44.40904012542905],
            [-88.6128058843725, 44.38382843043267],
            [-88.63754859545702, 44.35921396880642],
            [-88.66345672805166, 44.33522595381078],
            [-88.69049817461386, 44.311892820703456],
            [-88.71863960121796, 44.2892421958663],
            [-88.74784648946752, 44.26730086695323],
            [-88.77808317913234, 44.24609475407842],
            [-88.80931291146113, 44.22564888206241],
            [-88.84149787312249, 44.20598735375258],
            [-88.87459924072968, 44.187133324433795],
            [-88.90857722590604, 44.16910897734338],
            [-88.94339112085056, 44.15193550030422],
            [-88.97899934436472, 44.135633063488314],
            [-89.01535948830413, 44.120220798322286],
            [-89.05242836441968, 44.10571677754607],
            [-89.09016205155577, 44.092137996434],
            [-89.12851594317394, 44.07950035518802],
            [-89.16744479517247, 44.06781864251104],
            [-89.20690277397401, 44.057106520368215],
            [-89.24684350485461, 44.04737650994297],
            [-89.28722012048918, 44.038639978794215],
            [-89.32798530968937, 44.03090712922022],
            [-89.36909136631125, 44.02418698783436],
            [-89.41049023831141, 44.01848739635695],
            [-89.45213357693041, 44.013815003627265],
            [-89.49397278598421, 44.010175258838906],
            [-89.53595907124422, 44.00757240600138],
            [-89.57804348988765, 44.00600947963011],
            [-89.620177, 44.0054883016666],
            [-89.66231051011235, 44.00600947963011],
            [-89.70439492875578, 44.00757240600138],
            [-89.74638121401578, 44.010175258838906],
            [-89.78822042306959, 44.013815003627265],
            [-89.82986376168859, 44.01848739635695],
            [-89.87126263368874, 44.02418698783436],
            [-89.91236869031063, 44.03090712922022],
            [-89.9531338795108, 44.038639978794215],
            [-89.99351049514539, 44.04737650994297],
            [-90.03345122602599, 44.057106520368215],
            [-90.07290920482752, 44.06781864251104],
            [-90.11183805682606, 44.07950035518802],
            [-90.15019194844423, 44.092137996434],
            [-90.18792563558031, 44.10571677754607],
            [-90.22499451169587, 44.120220798322286],
            [-90.26135465563526, 44.135633063488314],
            [-90.29696287914943, 44.15193550030422],
            [-90.33177677409395, 44.16910897734338],
            [-90.36575475927032, 44.187133324433795],
            [-90.3988561268775, 44.20598735375258],
            [-90.43104108853886, 44.22564888206241],
            [-90.46227082086766, 44.24609475407842],
            [-90.49250751053248, 44.26730086695323],
            [-90.52171439878204, 44.2892421958663],
            [-90.54985582538613, 44.311892820703456],
            [-90.57689727194834, 44.33522595381078],
            [-90.60280540454298, 44.35921396880642],
            [-90.62754811562749, 44.38382843043267],
            [-90.6510945651785, 44.40904012542905],
            [-90.67341522099846, 44.434819094406556],
            [-90.69448189813686, 44.461134664701454],
            [-90.71426779736834, 44.487955484185775],
            [-90.73274754266815, 44.51524955601058],
            [-90.74989721762265, 44.54298427425601],
            [-90.7656944007116, 44.5711264604614],
            [-90.78011819939644, 44.599642401006655],
            [-90.79314928294738, 44.628497885314616],
            [-90.80476991394046, 44.657658244842935],
            [-90.81496397835431, 44.68708839283165],
            [-90.82371701419517, 44.71675286477159],
            [-90.83101623857739, 44.746615859556634],
            [-90.83685057318617, 44.77664128128126],
            [-90.84121066804809, 44.806792781643026],
            [-90.84408892353527, 44.83703380290777],
            [-90.84547951052791, 44.867327621393656],
            [-90.84537838866127, 44.8976373914282],
            [-90.84378332258221, 44.927926189730734],
            [-90.84069389614218, 44.958157060170926],
            [-90.83611152445445, 44.988293058852086],
            [-90.8300394637438, 45.018297299466454],
            [-90.82248281892012, 45.048132998867665],
            [-90.81344854880821, 45.077763522803906],
            [-90.80294546896911, 45.107152431753995],
            [-90.79098425205126, 45.13626352680649],
            [-90.77757742561253, 45.16506089552065],
            [-90.76273936735838, 45.193508957706825],
            [-90.74648629774492, 45.22157251106213],
            [-90.7288362699005, 45.24921677659614],
            [-90.70980915682397, 45.27640744378026],
            [-90.68942663582318, 45.303110715353256],
            [-90.66771217016257, 45.329293351714725],
            [-90.64469098789525, 45.35492271483712],
            [-90.62039005786026, 45.379966811626815],
            [-90.59483806283365, 45.40439433666379],
            [-90.56806536982766, 45.42817471424963],
            [-90.54010399754058, 45.45127813969286],
            [-90.5109875809665, 45.47367561976143],
            [-90.48075133318268, 45.49533901223165],
            [-90.44943200433977, 45.51624106446385],
            [-90.41706783788798, 45.53635545093546],
            [-90.38369852408138, 45.55565680966328],
            [-90.34936515080975, 45.57412077744726],
            [-90.31411015181676, 45.59172402387007],
            [-90.27797725237122, 45.60844428398778],
            [-90.241011412466, 45.62426038964877],
            [-90.20325876762874, 45.63915229937993],
            [-90.16476656743528, 45.65310112678153],
            [-90.12558311182549, 45.66608916737405],
            [-90.08575768532887, 45.67809992384333],
            [-90.04534048931434, 45.689118129632675],
            [-90.00438257238629, 45.69912977083391],
            [-89.96293575905557, 45.70812210633212],
            [-89.9210525768204, 45.71608368616234],
            [-89.8787861817983, 45.72300436803996],
            [-89.83619028305569, 45.72887533203],
            [-89.79331906578649, 45.73368909332425],
            [-89.75022711349597, 45.73743951309933],
            [-89.7069693293492, 45.74012180743239],
            [-89.6636008568478, 45.74173255425542],
            [-89.620177, 45.74226969833341]
          ]
        ]
      }
    },
    {
      "type": "Feature",
      "properties": {
        "anchorZip": "54476",
        "radiusMiles": 60
      },
      "geometry": {
        "type": "Polygon",
        "coordinates": [
          [
            [-89.520725, 45.75835069833341],
            [-89.47728863051067, 45.757813549635664],
            [-89.43390766274084, 45.75620278897691],
            [-89.39063741803926, 45.753520471662725],
            [-89.34753305718327, 45.749770019878326],
            [-89.30464950051666, 45.74495621770973],
            [-89.2620413485945, 45.73908520418863],
            [-89.21976280350017, 45.73216446437554],
            [-89.17786759099842, 45.724202818500444],
            [-89.1364088836835, 45.71521040918395],
            [-89.09543922527926, 45.705198686766394],
            [-89.05501045624229, 45.6941803927753],
            [-89.01517364081491, 45.68216954156658],
            [-88.97597899566921, 45.66918140017735],
            [-88.93747582027721, 45.65523246643242],
            [-88.89971242913593, 45.64034044534938],
            [-88.86273608596925, 45.62452422389073],
            [-88.82659294002141, 45.60780384411401],
            [-88.7913279645495, 45.59020047477394],
            [-88.75698489761407, 45.571736381433006],
            [-88.7236061852601, 45.55243489513937],
            [-88.69123292717086, 45.53232037973294],
            [-88.65990482487076, 45.511418197842495],
            [-88.62966013254301, 45.48975467563851],
            [-88.60053561052126, 45.4673570664077],
            [-88.57256648150465, 45.444253513016584],
            [-88.54578638953818, 45.42047300933257],
            [-88.52022736179183, 45.39604536067179],
            [-88.49591977316358, 45.371001143343605],
            [-88.47289231372375, 45.345371663362066],
            [-88.45117195901022, 45.319188914395134],
            [-88.43078394317688, 45.29248553502209],
            [-88.41175173498952, 45.26529476536981],
            [-88.39409701665801, 45.237650403198174],
            [-88.37783966548504, 45.20958675950427],
            [-88.3629977383072, 45.181138613714594],
            [-88.34958745869673, 45.15234116853367],
            [-88.33762320688793, 45.12323000451644],
            [-88.32711751238595, 45.093841034431],
            [-88.31808104921176, 45.06421045747678],
            [-88.3105226337319, 45.03437471342222],
            [-88.30444922501815, 45.004370436724635],
            [-88.29986592767831, 44.97423441069343],
            [-88.2967759970962, 44.944003521756215],
            [-88.29518084701596, 44.913714713885916],
            [-88.29508005940333, 44.88340494324541],
            [-88.29647139651487, 44.853111133104164],
            [-88.29935081510335, 44.822870129079995],
            [-88.30371248268749, 44.79271865475705],
            [-88.30954879581206, 44.76269326772944],
            [-88.31685040022428, 44.73283031611807],
            [-88.32560621289173, 44.70316589560645],
            [-88.33580344578718, 44.6737358070395],
            [-88.34742763136553, 44.64457551462735],
            [-88.36046264965883, 44.61572010479475],
            [-88.37489075691566, 44.58720424571438],
            [-88.39069261571245, 44.559062147561136],
            [-88.407847326465, 44.531327523522364],
            [-88.42633246026996, 44.50403355159763],
            [-88.44612409300738, 44.47721283721965],
            [-88.46719684063713, 44.4508973767266],
            [-88.48952389562349, 44.425118521714474],
            [-88.51307706442422, 44.39990694429652],
            [-88.53782680598236, 44.37529260329533],
            [-88.56374227116063, 44.351304711391755],
            [-88.5907913430612, 44.32797170325348],
            [-88.61894067817443, 44.30532120466462],
            [-88.64815574830364, 44.283380002676566],
            [-88.67840088321432, 44.262174016798966],
            [-88.70963931395848, 44.24172827124861],
            [-88.74183321682719, 44.22206686827277],
            [-88.77494375788638, 44.20321296256253],
            [-88.80893113805314, 44.18518873677062],
            [-88.84375463867165, 44.16801537814709],
            [-88.87937266755027, 44.15171305630549],
            [-88.91574280542268, 44.13630090213104],
            [-88.95282185279885, 44.121796987841584],
            [-88.99056587717219, 44.10821830821122],
            [-89.028930260552, 44.095580762965646],
            [-89.06786974729174, 44.083899140357744],
            [-89.10733849218482, 44.0731871019308],
            [-89.14729010880176, 44.06345716847648],
            [-89.18767771804325, 44.05472070719378],
            [-89.22845399688568, 44.04698792005455],
            [-89.26957122729614, 44.04026783338054],
            [-89.3109813452956, 44.034568288636756],
            [-89.35263599014938, 44.02989593444443],
            [-89.3944865536654, 44.02625621981748],
            [-89.43648422958091, 44.02365338862479],
            [-89.47858006301946, 44.02209047528089],
            [-89.520725, 44.021569301666595],
            [-89.56286993698053, 44.02209047528089],
            [-89.60496577041908, 44.02365338862479],
            [-89.6469634463346, 44.02625621981748],
            [-89.6888140098506, 44.02989593444443],
            [-89.7304686547044, 44.034568288636756],
            [-89.77187877270384, 44.04026783338054],
            [-89.8129960031143, 44.04698792005455],
            [-89.85377228195675, 44.05472070719378],
            [-89.89415989119823, 44.06345716847648],
            [-89.93411150781517, 44.0731871019308],
            [-89.97358025270826, 44.083899140357744],
            [-90.012519739448, 44.095580762965646],
            [-90.0508841228278, 44.10821830821122],
            [-90.08862814720113, 44.121796987841584],
            [-90.12570719457732, 44.13630090213104],
            [-90.16207733244973, 44.15171305630549],
            [-90.19769536132833, 44.16801537814709],
            [-90.23251886194684, 44.18518873677062],
            [-90.2665062421136, 44.20321296256253],
            [-90.29961678317281, 44.22206686827277],
            [-90.3318106860415, 44.24172827124861],
            [-90.36304911678566, 44.262174016798966],
            [-90.39329425169635, 44.283380002676566],
            [-90.42250932182557, 44.30532120466462],
            [-90.45065865693878, 44.32797170325348],
            [-90.47770772883936, 44.351304711391755],
            [-90.50362319401764, 44.37529260329533],
            [-90.52837293557576, 44.39990694429652],
            [-90.5519261043765, 44.425118521714474],
            [-90.57425315936287, 44.4508973767266],
            [-90.59532590699261, 44.47721283721965],
            [-90.61511753973004, 44.50403355159763],
            [-90.633602673535, 44.531327523522364],
            [-90.65075738428754, 44.559062147561136],
            [-90.66655924308432, 44.58720424571438],
            [-90.68098735034116, 44.61572010479475],
            [-90.69402236863445, 44.64457551462735],
            [-90.70564655421282, 44.6737358070395],
            [-90.71584378710826, 44.70316589560645],
            [-90.7245995997757, 44.73283031611807],
            [-90.73190120418792, 44.76269326772944],
            [-90.7377375173125, 44.79271865475705],
            [-90.74209918489665, 44.822870129079995],
            [-90.74497860348512, 44.853111133104164],
            [-90.74636994059665, 44.88340494324541],
            [-90.74626915298404, 44.913714713885916],
            [-90.74467400290378, 44.944003521756215],
            [-90.74158407232167, 44.97423441069343],
            [-90.73700077498184, 45.004370436724635],
            [-90.73092736626809, 45.03437471342222],
            [-90.72336895078824, 45.06421045747678],
            [-90.71433248761404, 45.093841034431],
            [-90.70382679311207, 45.12323000451644],
            [-90.69186254130327, 45.15234116853367],
            [-90.67845226169278, 45.181138613714594],
            [-90.66361033451496, 45.20958675950427],
            [-90.64735298334199, 45.237650403198174],
            [-90.62969826501048, 45.26529476536981],
            [-90.61066605682312, 45.29248553502209],
            [-90.59027804098976, 45.319188914395134],
            [-90.56855768627625, 45.345371663362066],
            [-90.5455302268364, 45.371001143343605],
            [-90.52122263820816, 45.39604536067179],
            [-90.49566361046182, 45.420473009332575],
            [-90.46888351849535, 45.444253513016584],
            [-90.44091438947873, 45.4673570664077],
            [-90.41178986745697, 45.48975467563851],
            [-90.38154517512923, 45.511418197842495],
            [-90.35021707282912, 45.53232037973294],
            [-90.3178438147399, 45.55243489513937],
            [-90.28446510238591, 45.571736381433006],
            [-90.2501220354505, 45.59020047477394],
            [-90.21485705997857, 45.60780384411401],
            [-90.17871391403074, 45.62452422389073],
            [-90.14173757086407, 45.64034044534938],
            [-90.10397417972277, 45.65523246643242],
            [-90.06547100433079, 45.66918140017735],
            [-90.02627635918509, 45.68216954156658],
            [-89.98643954375771, 45.6941803927753],
            [-89.94601077472072, 45.705198686766394],
            [-89.90504111631648, 45.71521040918395],
            [-89.86358240900157, 45.724202818500444],
            [-89.82168719649981, 45.73216446437554],
            [-89.7794086514055, 45.73908520418863],
            [-89.73680049948332, 45.74495621770973],
            [-89.69391694281671, 45.749770019878326],
            [-89.65081258196074, 45.753520471662725],
            [-89.60754233725916, 45.75620278897691],
            [-89.56416136948931, 45.757813549635664],
            [-89.520725, 45.75835069833341]
          ]
        ]
      }
    },
    {
      "type": "Feature",
      "properties": {
        "anchorZip": "54481",
        "radiusMiles": 60
      },
      "geometry": {
        "type": "Polygon",
        "coordinates": [
          [
            [-89.646149, 45.3908946983334],
            [-89.60299591496042, 45.39035765453974],
            [-89.55989783842486, 45.388747208058334],
            [-89.51690969926129, 45.386065412592814],
            [-89.47408626723299, 45.38231568766797],
            [-89.43148207386406, 45.3775028136653],
            [-89.38915133380436, 45.37163292488761],
            [-89.3471478668577, 45.36471350066746],
            [-89.30552502083367, 45.35675335453853],
            [-89.26433559538145, 45.347762621492464],
            [-89.22363176695887, 45.337752743348595],
            [-89.18346501508685, 45.32673645226686],
            [-89.1438860500337, 45.314727752438706],
            [-89.10494474206833, 45.30174189999383],
            [-89.06669005241653, 45.287795381164315],
            [-89.02916996604664, 45.27290588875099],
            [-88.99243142640574, 45.257092296939774],
            [-88.95652027221958, 45.24037463451887],
            [-88.92148117646212, 45.2227740565504],
            [-88.88735758759371, 45.20431281455228],
            [-88.8541916731581, 45.18501422524922],
            [-88.82202426582118, 45.16490263795278],
            [-88.7908948119259, 45.144003400633586],
            [-88.76084132263001, 45.12234282474928],
            [-88.73190032768414, 45.09994814889427],
            [-88.70410683190075, 45.07684750133803],
            [-88.67749427435503, 45.053069861520044],
            [-88.6520944903518, 45.02864502057027],
            [-88.62793767618354, 45.00360354092455],
            [-88.60505235669777, 44.97797671510518],
            [-88.58346535568347, 44.951796523736625],
            [-88.56320176907965, 44.92509559286706],
            [-88.54428494100158, 44.897907150665525],
            [-88.52673644257324, 44.87026498356509],
            [-88.51057605354869, 44.842203391921245],
            [-88.49582174669773, 44.81375714525444],
            [-88.48248967492653, 44.7849614371451],
            [-88.47059416109755, 44.755851839848084],
            [-88.46014769050822, 44.72646425869324],
            [-88.45116090598303, 44.696834886336724],
            [-88.44364260552962, 44.6670001569272],
            [-88.43759974250455, 44.636996700249526],
            [-88.43303742823214, 44.60686129590679],
            [-88.4299589370153, 44.57663082760047],
            [-88.4283657134751, 44.54634223756676],
            [-88.42825738215326, 44.516032481225324],
            [-88.42963175930959, 44.485738482095265],
            [-88.43248486684446, 44.45549708703145],
            [-88.43681094827552, 44.425345021832236],
            [-88.44260248669602, 44.39531884726817],
            [-88.44985022464226, 44.3654549155794],
            [-88.45854318579643, 44.335789327487674],
            [-88.46866869845147, 44.306357889767014],
            [-88.48021242066453, 44.27719607341544],
            [-88.49315836702584, 44.24833897246824],
            [-88.50748893697079, 44.21982126349168],
            [-88.52318494456323, 44.19167716579403],
            [-88.54022564967993, 44.16394040238954],
            [-88.55858879052619, 44.136644161748734],
            [-88.57825061741508, 44.10982106036729],
            [-88.5991859277436, 44.08350310618387],
            [-88.62136810210094, 44.05772166287567],
            [-88.64476914144565, 44.032507415059264],
            [-88.6693597052907, 44.007890334422385],
            [-88.69510915083696, 43.98389964681124],
            [-88.72198557299771, 43.96056380029637],
            [-88.74995584525922, 43.93791043423885],
            [-88.7789856613237, 43.91596634937714],
            [-88.80903957748416, 43.894757478953984],
            [-88.84008105568147, 43.8743088609012],
            [-88.8720725071974, 43.85464461109939],
            [-88.9049753369383, 43.83578789772824],
            [-88.93874998826708, 43.81776091672217],
            [-88.9733559883422, 43.80058486834523],
            [-89.00875199392578, 43.784279934897654],
            [-89.04489583762297, 43.76886525956628],
            [-89.08174457451845, 43.75435892642968],
            [-89.11925452917636, 43.740777941628],
            [-89.1573813429724, 43.72813821570706],
            [-89.19608002172825, 43.71645454714515],
            [-89.23530498361986, 43.70574060707034],
            [-89.27501010733299, 43.69600892517546],
            [-89.31514878044035, 43.68727087683722],
            [-89.3556739479761, 43.67953667144518],
            [-89.39653816118475, 43.6728153419458],
            [-89.43769362642232, 43.667114735606205],
            [-89.47909225418864, 43.66244150600141],
            [-89.52068570827065, 43.6588011062287],
            [-89.5624254549769, 43.6561977833519],
            [-89.60426281244455, 43.65463457407779],
            [-89.646149, 43.65411330166659],
            [-89.68803518755544, 43.65463457407779],
            [-89.72987254502308, 43.6561977833519],
            [-89.77161229172934, 43.6588011062287],
            [-89.81320574581136, 43.66244150600141],
            [-89.85460437357769, 43.667114735606205],
            [-89.89575983881525, 43.6728153419458],
            [-89.9366240520239, 43.67953667144518],
            [-89.97714921955965, 43.68727087683722],
            [-90.017287892667, 43.69600892517546],
            [-90.05699301638013, 43.70574060707034],
            [-90.09621797827175, 43.71645454714515],
            [-90.13491665702759, 43.72813821570705],
            [-90.17304347082364, 43.740777941628],
            [-90.21055342548154, 43.75435892642968],
            [-90.24740216237701, 43.76886525956628],
            [-90.2835460060742, 43.784279934897654],
            [-90.31894201165778, 43.80058486834523],
            [-90.35354801173291, 43.81776091672217],
            [-90.38732266306168, 43.83578789772823],
            [-90.4202254928026, 43.85464461109939],
            [-90.45221694431852, 43.8743088609012],
            [-90.48325842251585, 43.894757478953984],
            [-90.51331233867629, 43.91596634937714],
            [-90.54234215474077, 43.93791043423885],
            [-90.57031242700228, 43.96056380029637],
            [-90.59718884916303, 43.98389964681124],
            [-90.6229382947093, 44.007890334422385],
            [-90.64752885855434, 44.032507415059264],
            [-90.67092989789906, 44.05772166287567],
            [-90.69311207225638, 44.08350310618387],
            [-90.71404738258492, 44.10982106036729],
            [-90.73370920947382, 44.136644161748734],
            [-90.75207235032008, 44.16394040238954],
            [-90.76911305543678, 44.19167716579403],
            [-90.78480906302921, 44.21982126349168],
            [-90.79913963297415, 44.24833897246824],
            [-90.81208557933546, 44.27719607341544],
            [-90.82362930154852, 44.306357889767014],
            [-90.83375481420357, 44.335789327487674],
            [-90.84244777535774, 44.3654549155794],
            [-90.84969551330398, 44.39531884726817],
            [-90.85548705172447, 44.425345021832236],
            [-90.85981313315553, 44.45549708703145],
            [-90.86266624069042, 44.485738482095265],
            [-90.86404061784674, 44.516032481225324],
            [-90.8639322865249, 44.54634223756676],
            [-90.8623390629847, 44.57663082760047],
            [-90.85926057176785, 44.60686129590679],
            [-90.85469825749546, 44.636996700249526],
            [-90.84865539447038, 44.667000156927195],
            [-90.84113709401696, 44.696834886336724],
            [-90.83215030949178, 44.72646425869324],
            [-90.82170383890245, 44.755851839848084],
            [-90.80980832507346, 44.784961437145085],
            [-90.79647625330229, 44.81375714525444],
            [-90.78172194645131, 44.842203391921245],
            [-90.76556155742675, 44.87026498356509],
            [-90.74801305899842, 44.897907150665525],
            [-90.72909623092033, 44.92509559286706],
            [-90.70883264431652, 44.951796523736625],
            [-90.68724564330222, 44.97797671510518],
            [-90.66436032381645, 45.00360354092455],
            [-90.6402035096482, 45.02864502057027],
            [-90.61480372564498, 45.053069861520044],
            [-90.58819116809924, 45.07684750133803],
            [-90.56039767231584, 45.09994814889427],
            [-90.53145667736997, 45.12234282474928],
            [-90.5014031880741, 45.144003400633586],
            [-90.47027373417882, 45.16490263795278],
            [-90.43810632684189, 45.18501422524922],
            [-90.40494041240629, 45.20431281455228],
            [-90.37081682353788, 45.2227740565504],
            [-90.33577772778042, 45.24037463451887],
            [-90.29986657359426, 45.257092296939774],
            [-90.26312803395336, 45.27290588875099],
            [-90.22560794758347, 45.287795381164315],
            [-90.18735325793166, 45.30174189999383],
            [-90.1484119499663, 45.314727752438706],
            [-90.10883298491314, 45.32673645226686],
            [-90.06866623304113, 45.337752743348595],
            [-90.02796240461855, 45.347762621492464],
            [-89.98677297916632, 45.35675335453853],
            [-89.9451501331423, 45.36471350066746],
            [-89.90314666619562, 45.37163292488761],
            [-89.86081592613593, 45.3775028136653],
            [-89.818211732767, 45.38231568766797],
            [-89.77538830073871, 45.386065412592814],
            [-89.73240016157513, 45.388747208058334],
            [-89.68930208503959, 45.39035765453974],
            [-89.646149, 45.3908946983334]
          ]
        ]
      }
    },
    {
      "type": "Feature",
      "properties": {
        "anchorZip": "54482",
        "radiusMiles": 60
      },
      "geometry": {
        "type": "Polygon",
        "coordinates": [
          [
            [-89.509584, 45.418471698333406],
            [-89.46640984473565, 45.417934646714336],
            [-89.42329072721427, 45.41632417679657],
            [-89.3802816054882, 45.41364234240322],
            [-89.33743727839611, 45.409892563257486],
            [-89.29481230637445, 45.405079620017126],
            [-89.25246093276891, 45.3992096473376],
            [-89.21043700580968, 45.39229012497867],
            [-89.16879390141152, 45.38432986697339],
            [-89.12758444695642, 45.375339008882364],
            [-89.08686084621311, 45.365328993160375],
            [-89.04667460554309, 45.35431255266604],
            [-89.00707646153778, 45.342303692348835],
            [-88.96811631022689, 45.329317669151955],
            [-88.92984313799073, 45.31537097017208],
            [-88.89230495430442, 45.3004812891212],
            [-88.85554872643431, 45.28466750113815],
            [-88.81962031620024, 45.26794963600084],
            [-88.7845644189097, 45.25034884979264],
            [-88.75042450456257, 45.23188739507903],
            [-88.71724276141737, 45.21258858965306],
            [-88.6850600420012, 45.19247678391],
            [-88.65391581163868, 45.17157732691383],
            [-88.6238480995656, 45.14991653121965],
            [-88.59489345268598, 45.12752163651787],
            [-88.56708689202182, 45.10442077216681],
            [-88.54046187189785, 45.080642918682315],
            [-88.51505024189423, 45.056217868252595],
            [-88.49088221159319, 45.03117618434852],
            [-88.46798631813701, 45.00554916049892],
            [-88.44638939660784, 44.97936877830145],
            [-88.4261165532317, 44.95266766473918],
            [-88.40719114140225, 44.9254790488734],
            [-88.38963474051349, 44.89783671798235],
            [-88.37346713758278, 44.869774973215584],
            [-88.35870631164083, 44.84132858483279],
            [-88.34536842085824, 44.8125327470953],
            [-88.33346779237324, 44.78342303287747],
            [-88.32301691478, 44.75403534806434],
            [-88.3140264332322, 44.72440588580049],
            [-88.30650514711175, 44.69457108065417],
            [-88.30046001020914, 44.66456756275913],
            [-88.29589613335791, 44.63443211199529],
            [-88.29281678946246, 44.604201612267836],
            [-88.29122342085583, 44.57391300594289],
            [-88.29111564892133, 44.543603248495856],
            [-88.29249128591024, 44.51330926342757],
            [-88.29534634888527, 44.48306789750094],
            [-88.29967507571894, 44.452915876349415],
            [-88.3054699430744, 44.42288976050687],
            [-88.31272168629584, 44.39302590190643],
            [-88.32141932113471, 44.3633604008942],
            [-88.33155016723829, 44.333929063802124],
            [-88.34309987332733, 44.304767361121996],
            [-88.35605244398899, 44.27591038632153],
            [-88.37039026801332, 44.247392815340916],
            [-88.38609414820105, 44.21924886680717],
            [-88.40314333257216, 44.1915122630015],
            [-88.42151554690581, 44.16421619161328],
            [-88.44118702854371, 44.13739326831288],
            [-88.46213256138992, 44.11107550017348],
            [-88.48432551204276, 44.085294249970914],
            [-88.50773786699513, 44.060080201388885],
            [-88.5323402708424, 44.03546332515518],
            [-88.55810206543823, 44.01147284613367],
            [-88.58499132994119, 43.98813721139482],
            [-88.6129749216965, 43.96548405928656],
            [-88.64201851790028, 43.943540189526026],
            [-88.6720866579946, 43.92233153433112],
            [-88.7031427867445, 43.90188313061019],
            [-88.73514929795033, 43.88221909322641],
            [-88.7680675787503, 43.86336258935285],
            [-88.80185805447042, 43.84533581393273],
            [-88.83648023398138, 43.82815996625883],
            [-88.87189275552356, 43.81185522768455],
            [-88.90805343296294, 43.79644074047865],
            [-88.94491930244361, 43.78193458783444],
            [-88.98244666940309, 43.768353775043785],
            [-89.0205911559194, 43.75571421184493],
            [-89.05930774835986, 43.74403069595296],
            [-89.0985508453034, 43.73331689778056],
            [-89.13827430570959, 43.72358534635619],
            [-89.1784314973089, 43.71484741644618],
            [-89.21897534519006, 43.707113316886435],
            [-89.25985838056107, 43.70039208012896],
            [-89.30103278966271, 43.69469155300776],
            [-89.34245046281252, 43.690018388728134],
            [-89.38406304355959, 43.686378040082566],
            [-89.4258219779305, 43.683774753896394],
            [-89.46767856374746, 43.68221156670531],
            [-89.509584, 43.681690301666585],
            [-89.55148943625255, 43.68221156670531],
            [-89.5933460220695, 43.683774753896394],
            [-89.63510495644041, 43.686378040082566],
            [-89.67671753718749, 43.690018388728134],
            [-89.7181352103373, 43.69469155300776],
            [-89.75930961943894, 43.70039208012896],
            [-89.80019265480995, 43.707113316886435],
            [-89.84073650269109, 43.71484741644618],
            [-89.88089369429042, 43.72358534635619],
            [-89.92061715469661, 43.73331689778056],
            [-89.95986025164014, 43.74403069595296],
            [-89.99857684408059, 43.75571421184493],
            [-90.03672133059692, 43.768353775043785],
            [-90.07424869755638, 43.78193458783444],
            [-90.11111456703706, 43.79644074047865],
            [-90.14727524447645, 43.81185522768455],
            [-90.18268776601862, 43.82815996625883],
            [-90.21730994552959, 43.84533581393273],
            [-90.25110042124969, 43.86336258935285],
            [-90.28401870204966, 43.88221909322641],
            [-90.3160252132555, 43.90188313061019],
            [-90.3470813420054, 43.92233153433112],
            [-90.3771494820997, 43.943540189526026],
            [-90.4061930783035, 43.96548405928656],
            [-90.43417667005882, 43.98813721139482],
            [-90.46106593456177, 44.01147284613367],
            [-90.48682772915761, 44.03546332515518],
            [-90.51143013300488, 44.060080201388885],
            [-90.53484248795723, 44.085294249970914],
            [-90.55703543861007, 44.11107550017348],
            [-90.5779809714563, 44.13739326831288],
            [-90.59765245309418, 44.16421619161328],
            [-90.61602466742785, 44.1915122630015],
            [-90.63307385179895, 44.21924886680717],
            [-90.64877773198668, 44.247392815340916],
            [-90.66311555601102, 44.27591038632153],
            [-90.67606812667267, 44.304767361121996],
            [-90.6876178327617, 44.333929063802124],
            [-90.6977486788653, 44.3633604008942],
            [-90.70644631370416, 44.39302590190643],
            [-90.71369805692561, 44.42288976050688],
            [-90.71949292428107, 44.452915876349415],
            [-90.72382165111473, 44.48306789750094],
            [-90.72667671408976, 44.51330926342757],
            [-90.72805235107867, 44.543603248495856],
            [-90.72794457914418, 44.57391300594289],
            [-90.72635121053753, 44.604201612267836],
            [-90.72327186664208, 44.63443211199529],
            [-90.71870798979086, 44.66456756275913],
            [-90.71266285288826, 44.69457108065417],
            [-90.70514156676781, 44.72440588580049],
            [-90.69615108522001, 44.75403534806434],
            [-90.68570020762677, 44.78342303287747],
            [-90.67379957914176, 44.8125327470953],
            [-90.66046168835916, 44.84132858483279],
            [-90.64570086241723, 44.869774973215584],
            [-90.62953325948652, 44.89783671798235],
            [-90.61197685859774, 44.9254790488734],
            [-90.59305144676831, 44.95266766473918],
            [-90.57277860339215, 44.97936877830145],
            [-90.55118168186299, 45.00554916049892],
            [-90.52828578840682, 45.03117618434852],
            [-90.50411775810576, 45.056217868252595],
            [-90.47870612810215, 45.080642918682315],
            [-90.45208110797819, 45.10442077216681],
            [-90.42427454731403, 45.127521636517855],
            [-90.3953199004344, 45.14991653121965],
            [-90.36525218836132, 45.17157732691383],
            [-90.33410795799881, 45.19247678391],
            [-90.30192523858264, 45.21258858965306],
            [-90.26874349543743, 45.23188739507903],
            [-90.23460358109031, 45.25034884979264],
            [-90.19954768379975, 45.26794963600084],
            [-90.16361927356569, 45.28466750113814],
            [-90.12686304569559, 45.3004812891212],
            [-90.08932486200926, 45.31537097017208],
            [-90.0510516897731, 45.329317669151955],
            [-90.01209153846222, 45.342303692348835],
            [-89.97249339445692, 45.35431255266604],
            [-89.93230715378687, 45.365328993160375],
            [-89.89158355304359, 45.375339008882364],
            [-89.85037409858847, 45.38432986697339],
            [-89.80873099419031, 45.39229012497867],
            [-89.7667070672311, 45.3992096473376],
            [-89.72435569362555, 45.405079620017126],
            [-89.6817307216039, 45.409892563257486],
            [-89.63888639451181, 45.41364234240322],
            [-89.59587727278574, 45.41632417679657],
            [-89.55275815526436, 45.417934646714336],
            [-89.509584, 45.418471698333406]
          ]
        ]
      }
    },
    {
      "type": "Feature",
      "properties": {
        "anchorZip": "54467",
        "radiusMiles": 60
      },
      "geometry": {
        "type": "Polygon",
        "coordinates": [
          [
            [-89.538901, 45.2823096983334],
            [-89.4958305830176, 45.281772685278426],
            [-89.45281505983348, 45.28016233085636],
            [-89.40990924482394, 45.27748068830165],
            [-89.36716779368797, 45.27373117635982],
            [-89.3246451245248, 45.26891857432724],
            [-89.28239533940874, 45.2630490151216],
            [-89.24047214662434, 45.2561299763977],
            [-89.1989287837223, 45.24817026972772],
            [-89.15781794155262, 45.23918002786868],
            [-89.11719168942905, 45.22917069014389],
            [-89.07710140157303, 45.21815498596931],
            [-89.03759768498216, 45.20614691655893],
            [-88.99873030886101, 45.19316173484726],
            [-88.96054813574814, 45.179215923670476],
            [-88.92309905446538, 45.16432717225055],
            [-88.88642991500967, 45.14851435103053],
            [-88.8505864655007, 45.13179748491131],
            [-88.81561329128975, 45.114197724943544],
            [-88.78155375632821, 45.09573731853059],
            [-88.74844994688607, 45.07643957820066],
            [-88.71634261770298, 45.05632884900881],
            [-88.68527114064605, 45.035430474630886],
            [-88.65527345594076, 45.01377076221365],
            [-88.62638602603302, 44.99137694604649],
            [-88.59864379213205, 44.96827715012167],
            [-88.57208013347599, 44.94450034965083],
            [-88.5467268293535, 44.920076331606744],
            [-88.52261402390747, 44.89503565435956],
            [-88.49977019373812, 44.869409606477554],
            [-88.47822211831655, 44.843230164762424],
            [-88.45799485321095, 44.81652995158946],
            [-88.43911170612176, 44.78934219162273],
            [-88.42159421571478, 44.76170066797506],
            [-88.40546213323434, 44.73363967788235],
            [-88.39073340687342, 44.70519398796086],
            [-88.37742416887069, 44.67639878911583],
            [-88.36554872529959, 44.64728965116834],
            [-88.35511954850931, 44.61790247726688],
            [-88.34614727217267, 44.5882734581484],
            [-88.33864068889157, 44.558439026312975],
            [-88.3326067503066, 44.528435810174365],
            [-88.3280505696542, 44.4983005882477],
            [-88.32497542671085, 44.468070243433736],
            [-88.32338277506153, 44.43778171745782],
            [-88.32327225162688, 44.40747196551997],
            [-88.32464168838146, 44.37717791121066],
            [-88.3274871261941, 44.34693640174555],
            [-88.33180283071898, 44.316784163570176],
            [-88.33758131026643, 44.286757758384375],
            [-88.3448133355801, 44.256893539633964],
            [-88.35348796144814, 44.22722760951582],
            [-88.36359255007488, 44.197795776540296],
            [-88.37511279613994, 44.16863351369354],
            [-88.38803275347206, 44.13977591724026],
            [-88.40233486326576, 44.11125766620572],
            [-88.41799998376914, 44.08311298257423],
            [-88.43500742137269, 44.055375592239486],
            [-88.45333496303017, 44.028078686740386],
            [-88.47295890994342, 44.001254885814674],
            [-88.49385411244499, 43.974936200800784],
            [-88.51599400601431, 43.94915399891679],
            [-88.53935064836372, 43.92393896844399],
            [-88.56389475753406, 43.89932108484109],
            [-88.58959575094029, 43.87532957781342],
            [-88.61642178530991, 43.85199289936044],
            [-88.6443397974592, 43.82933869282327],
            [-88.67331554585414, 43.80739376295289],
            [-88.70331365290494, 43.78618404701817],
            [-88.73429764794524, 43.76573458697186],
            [-88.76623001084916, 43.746069502691675],
            [-88.79907221624143, 43.72721196631208],
            [-88.83278477825789, 43.70918417766176],
            [-88.86732729581546, 43.692007340820545],
            [-88.90265849835306, 43.67570164180861],
            [-88.93873629200635, 43.660286227419945],
            [-88.9755178061814, 43.645779185210955],
            [-89.0129594404942, 43.63219752465474],
            [-89.051016912044, 43.619557159469984],
            [-89.08964530299116, 43.60787289113352],
            [-89.12879910841053, 43.597158393584124],
            [-89.16843228439394, 43.58742619912491],
            [-89.2084982963758, 43.578687685530745],
            [-89.24895016765755, 43.57095306436649],
            [-89.28974052810804, 43.5642313705214],
            [-89.33082166301725, 43.55853045296411],
            [-89.37214556208222, 43.553856966722435],
            [-89.41366396850509, 43.550216366091185],
            [-89.455328428183, 43.547612899071154],
            [-89.49709033897112, 43.54604960304136],
            [-89.538901, 43.54552830166659],
            [-89.58071166102887, 43.54604960304136],
            [-89.622473571817, 43.547612899071154],
            [-89.6641380314949, 43.550216366091185],
            [-89.70565643791777, 43.553856966722435],
            [-89.74698033698274, 43.55853045296411],
            [-89.78806147189195, 43.5642313705214],
            [-89.82885183234244, 43.57095306436649],
            [-89.8693037036242, 43.578687685530745],
            [-89.90936971560605, 43.58742619912491],
            [-89.94900289158946, 43.597158393584124],
            [-89.98815669700883, 43.60787289113352],
            [-90.02678508795599, 43.619557159469984],
            [-90.06484255950579, 43.63219752465474],
            [-90.10228419381859, 43.645779185210955],
            [-90.13906570799364, 43.660286227419945],
            [-90.17514350164693, 43.67570164180861],
            [-90.21047470418453, 43.692007340820545],
            [-90.2450172217421, 43.70918417766176],
            [-90.27872978375856, 43.72721196631208],
            [-90.31157198915083, 43.746069502691675],
            [-90.34350435205475, 43.76573458697186],
            [-90.37448834709505, 43.78618404701817],
            [-90.40448645414585, 43.80739376295289],
            [-90.4334622025408, 43.82933869282327],
            [-90.46138021469008, 43.85199289936044],
            [-90.4882062490597, 43.87532957781342],
            [-90.51390724246593, 43.89932108484109],
            [-90.53845135163627, 43.92393896844399],
            [-90.56180799398568, 43.94915399891679],
            [-90.583947887555, 43.974936200800784],
            [-90.60484309005658, 44.001254885814674],
            [-90.62446703696982, 44.028078686740386],
            [-90.6427945786273, 44.055375592239486],
            [-90.65980201623086, 44.08311298257423],
            [-90.67546713673423, 44.11125766620572],
            [-90.68976924652793, 44.13977591724026],
            [-90.70268920386005, 44.16863351369354],
            [-90.71420944992511, 44.197795776540296],
            [-90.72431403855185, 44.227227609515815],
            [-90.73298866441989, 44.256893539633964],
            [-90.74022068973356, 44.286757758384375],
            [-90.745999169281, 44.316784163570176],
            [-90.75031487380589, 44.34693640174555],
            [-90.75316031161853, 44.37717791121066],
            [-90.75452974837312, 44.40747196551997],
            [-90.75441922493846, 44.43778171745782],
            [-90.75282657328914, 44.468070243433736],
            [-90.7497514303458, 44.4983005882477],
            [-90.7451952496934, 44.528435810174365],
            [-90.73916131110842, 44.558439026312975],
            [-90.73165472782732, 44.58827345814839],
            [-90.72268245149068, 44.61790247726688],
            [-90.7122532747004, 44.64728965116834],
            [-90.7003778311293, 44.67639878911583],
            [-90.68706859312657, 44.70519398796086],
            [-90.67233986676565, 44.73363967788235],
            [-90.65620778428521, 44.76170066797506],
            [-90.63869029387823, 44.78934219162273],
            [-90.61980714678904, 44.81652995158946],
            [-90.59957988168344, 44.843230164762424],
            [-90.57803180626188, 44.869409606477554],
            [-90.55518797609253, 44.89503565435956],
            [-90.53107517064649, 44.920076331606744],
            [-90.505721866524, 44.94450034965083],
            [-90.47915820786794, 44.96827715012167],
            [-90.45141597396697, 44.99137694604649],
            [-90.42252854405923, 45.013770762213646],
            [-90.39253085935394, 45.035430474630886],
            [-90.36145938229701, 45.05632884900881],
            [-90.32935205311392, 45.07643957820066],
            [-90.29624824367178, 45.09573731853059],
            [-90.26218870871026, 45.114197724943544],
            [-90.2272155344993, 45.13179748491131],
            [-90.19137208499032, 45.14851435103053],
            [-90.15470294553461, 45.16432717225055],
            [-90.11725386425185, 45.179215923670476],
            [-90.07907169113898, 45.19316173484726],
            [-90.04020431501783, 45.20614691655893],
            [-90.00070059842696, 45.21815498596931],
            [-89.96061031057094, 45.22917069014389],
            [-89.91998405844737, 45.23918002786868],
            [-89.8788732162777, 45.24817026972772],
            [-89.83732985337565, 45.2561299763977],
            [-89.79540666059125, 45.2630490151216],
            [-89.75315687547518, 45.26891857432724],
            [-89.71063420631202, 45.27373117635982],
            [-89.66789275517606, 45.27748068830165],
            [-89.62498694016651, 45.28016233085636],
            [-89.5819714169824, 45.281772685278426],
            [-89.538901, 45.2823096983334]
          ]
        ]
      }
    }
  ]
}
